[{"OBJECT_NAME":"STARLINK-31997","OBJECT_ID":"2024-132L","EPOCH":"2026-03-09T08:29:51.951264","MEAN_MOTION":15.3018917,"ECCENTRICITY":0.00013541,"INCLINATION":53.161,"RA_OF_ASC_NODE":53.6553,"ARG_OF_PERICENTER":80.5679,"MEAN_ANOMALY":279.5475,"EPHEMERIS_TYPE":0,"CLASSIFICATION_TYPE":"U","NORAD_CAT_ID":60288,"ELEMENT_SET_NO":999,"REV_AT_EPOCH":9151,"BSTAR":-3.6062201e-5,"MEAN_MOTION_DOT":-1.427e-5,"MEAN_MOTION_DDOT":0},{"OBJECT_NAME":"TOMORROW-S2","OBJECT_ID":"2024-149T","EPOCH":"2026-03-09T18:02:42.746496","MEAN_MOTION":15.30674935,"ECCENTRICITY":0.0001648,"INCLINATION":97.3857,"RA_OF_ASC_NODE":150.0385,"ARG_OF_PERICENTER":234.3331,"MEAN_ANOMALY":125.7757,"EPHEMERIS_TYPE":0,"CLASSIFICATION_TYPE":"U","NORAD_CAT_ID":60485,"ELEMENT_SET_NO":999,"REV_AT_EPOCH":8686,"BSTAR":0.00027683033,"MEAN_MOTION_DOT":8.133e-5,"MEAN_MOTION_DDOT":0}]
